{"type": "FeatureCollection", "crs": {"type": "name", "properties": {"name": "urn:ogc:def:crs:OGC:1.3:CRS84"}}, "features": [{"type": "Feature", "properties": {"shapeName": "State of Palestine", "shapeISO": "PSE", "shapeID": "62339095B98297478170311", "shapeGroup": "PSE", "shapeType": "ADM0"}, "geometry": {"type": "MultiPolygon", "coordinates": [[[[34.52694400006561, 31.570277999829898], [34.521747899845764, 31.574024599755546], [34.51848629980293, 31.575976099817183], [34.51057110027608, 31.58177550033912], [34.50207139987526, 31.587436800068303], [34.49124849971855, 31.59498730022375], [34.491904627096915, 31.595852264570397], [34.49134868509378, 31.595212392437986], [34.49019034930524, 31.59325893365292], [34.488919330262945, 31.591745159711422], [34.48644207664057, 31.588069946171117], [34.485113859816806, 31.58659671276814], [34.48259623023188, 31.58270706937583], [34.47208089821493, 31.569866217352114], [34.466472920189176, 31.561348981070694], [34.46336561772915, 31.558369408421527], [34.456491598408604, 31.549041136539245], [34.43380859109368, 31.52666132665894], [34.433604671618355, 31.52480237223176], [34.428719951764435, 31.52423883095736], [34.42951317089614, 31.522707741469162], [34.426720212967496, 31.51874784034061], [34.40902340320753, 31.49808659621948], [34.34905834126948, 31.436419779549226], [34.30818499873874, 31.39958885544138], [34.303829069456015, 31.398594940903877], [34.26425738497039, 31.36114096468384], [34.218975998343694, 31.32327735806365], [34.235519600249404, 31.29661530035588], [34.240068599586266, 31.295779199750314], [34.26749939957767, 31.220128900128714], [34.29191059989432, 31.24120029985403], [34.31618799997625, 31.25170259979518], [34.32580869991165, 31.257973600301455], [34.33636089963585, 31.26839940031215], [34.34219739989015, 31.27825189960555], [34.36654750026696, 31.29052870043921], [34.37328799994128, 31.306173799581245], [34.36505509961319, 31.364411200016946], [34.36716640020927, 31.369582800006242], [34.37183389961484, 31.370221399597938], [34.37401619988776, 31.378801100090755], [34.3802663999744, 31.3895734997173], [34.39502429993155, 31.401852699942197], [34.404199800380525, 31.411641699904578], [34.4075179003309, 31.411583100080065], [34.416398399766365, 31.419724599610618], [34.42360269960494, 31.423372700389848], [34.4370599001943, 31.440270100085115], [34.44701549956568, 31.445070500403347], [34.453179499634246, 31.452052100224307], [34.4647268001018, 31.461139500387674], [34.477906700134156, 31.47621229975789], [34.48654269998565, 31.480879399864477], [34.512710500189485, 31.500694999774453], [34.52472679980201, 31.502945299585974], [34.531372000117756, 31.507077599851414], [34.54675309967587, 31.513034500441904], [34.55422430031126, 31.51874129957139], [34.55378369995782, 31.52124649962633], [34.55819220001007, 31.525123299800498], [34.55905139970241, 31.528414299580334], [34.56454559999952, 31.531913100309396], [34.56668020023113, 31.541464399562415], [34.52694400006561, 31.570277999829898]], [[34.52113640941781, 31.56771432855345], [34.52183931503242, 31.568780743736397], [34.52306199731339, 31.567394136630128], [34.52113640941781, 31.56771432855345]], [[34.51587547527299, 31.55481772395882], [34.51817618028656, 31.5525281336665], [34.51550465691446, 31.550348485494283], [34.51336019291864, 31.553560082332012], [34.51587547527299, 31.55481772395882]], [[34.512421940120475, 31.505011113372234], [34.51097632399819, 31.50581797342079], [34.515066991948174, 31.504961229776995], [34.5153364863898, 31.50325443074746], [34.512421940120475, 31.505011113372234]], [[34.289721282211474, 31.370212456739523], [34.29102256164197, 31.369902959553997], [34.28905088529018, 31.36868681264633], [34.289721282211474, 31.370212456739523]], [[34.2318377434172, 31.307287296971253], [34.23099802393972, 31.309976935387283], [34.23277640450749, 31.307920766829966], [34.2318377434172, 31.307287296971253]]], [[[35.231647100433406, 32.542661700077474], [35.224570400003984, 32.55214790010558], [35.21833249994495, 32.54913150021861], [35.2160679998384, 32.54782019964256], [35.2148139995665, 32.54442850007524], [35.20452440008103, 32.54096549955818], [35.197069700206555, 32.53555249994798], [35.18712589994038, 32.52368770012731], [35.180643399573285, 32.52435559963129], [35.17722330031512, 32.5182284996456], [35.16407000043023, 32.50879859987555], [35.160514900342434, 32.504096900151865], [35.15572839994576, 32.5029998999255], [35.14474830009402, 32.49631480028785], [35.13899799985785, 32.49629199977602], [35.13788289987599, 32.4945416996398], [35.13993940028314, 32.49340699983321], [35.126037299681684, 32.48390339972218], [35.11356010021848, 32.47963539985386], [35.10901579983937, 32.476043299858475], [35.10681970036893, 32.4754052002898], [35.10192990024473, 32.478208799896265], [35.09266750010511, 32.47625369984843], [35.08579310037135, 32.46896389966429], [35.082271500029776, 32.46784919988073], [35.0728154003105, 32.459125900140236], [35.0724055001138, 32.45386209985605], [35.0657274997244, 32.44943409980391], [35.06579240019914, 32.4430599002942], [35.060738200407684, 32.436747799871114], [35.05994159982504, 32.42953200040154], [35.05660950012839, 32.42333299961831], [35.05708150031103, 32.41925550044107], [35.053739800351536, 32.41653190002722], [35.05517499962656, 32.41170369986588], [35.05389730042015, 32.402902199576886], [35.04020230019603, 32.380599899565766], [35.041751000208535, 32.37768010035637], [35.049042000088264, 32.37650069974757], [35.05160789988474, 32.36700180039281], [35.0507368003631, 32.36404670009517], [35.048271899828364, 32.359629800375046], [35.04426729969617, 32.35894940029465], [35.04115949991103, 32.35512800015715], [35.04212419997191, 32.34864859975312], [35.04089439955692, 32.34650330028711], [35.03433580035693, 32.34581200042351], [35.028556700231604, 32.34694460031312], [35.0269366003439, 32.34010089983673], [35.020329599631395, 32.34106950025728], [35.01620960029288, 32.33845810016123], [35.01490580006265, 32.3027367002386], [35.01247109966158, 32.293858100171235], [35.013596899777156, 32.29323009998916], [35.00899039958733, 32.281224999634105], [35.0128213001629, 32.27950000012498], [35.01593810036309, 32.28038629998781], [35.02012140028245, 32.279269799761494], [35.02352079984507, 32.27461830019445], [35.02585810007133, 32.27383249957023], [35.03062749985929, 32.265663499670836], [35.028572799894846, 32.260365300318426], [35.02626340023579, 32.25939390030828], [35.02397229998172, 32.255283600158066], [35.02397050043828, 32.248794200192265], [35.01922989964021, 32.24245799973693], [35.02018670005623, 32.23442719955568], [35.017752899876484, 32.23352430000648], [35.01421939970561, 32.235545000201625], [35.005098899994266, 32.22388279965156], [34.991297000056534, 32.21264829957943], [34.98908759961307, 32.20754060001872], [34.98468299992055, 32.20670739972678], [34.982929300346996, 32.20438920020149], [34.97781880029743, 32.20301069958418], [34.97518010038135, 32.20052300033626], [34.96435489975886, 32.199958299835714], [34.96112780040772, 32.19736939987797], [34.96007790037487, 32.193425899685565], [34.95701509996695, 32.190148500353075], [34.95958869975874, 32.17566430006747], [34.964524500205584, 32.17327700023344], [34.96422399983777, 32.1689337001302], [34.96726740007051, 32.169028700014564], [34.97071279995578, 32.16647620011662], [34.97060039998854, 32.16448389961232], [34.97729009965843, 32.15873510034464], [34.974514100245585, 32.15213490030544], [34.979385199867124, 32.1487354998435], [34.98663879964096, 32.148436100245874], [34.990430300018375, 32.142151799665896], [34.989197000341335, 32.138670499743796], [34.98748499963307, 32.138014300419684], [34.98840769955575, 32.134035000015274], [34.98569520037324, 32.13013919986423], [34.98532289993193, 32.12628799979143], [34.988807399641814, 32.119355299707365], [34.98894479986268, 32.11503029990848], [34.99309850039555, 32.110375200355236], [34.99318559973568, 32.10642059983087], [34.99020109970104, 32.104910499619905], [34.99106169963778, 32.1023617004322], [34.98615729991951, 32.100306500444674], [34.982505400403966, 32.08956480007549], [34.98630640032019, 32.089782999885585], [34.999455700020576, 32.05306430037723], [35.00519489992473, 32.02185120007289], [34.99955019988187, 32.01748870034328], [34.999154199606664, 31.99355219997409], [34.994068500161234, 31.97278339963424], [34.98683870004601, 31.970600100214483], [34.98754639994644, 31.96782259983314], [34.9946337996102, 31.955574199589705], [35.000810699554165, 31.95016880015004], [35.005226299753986, 31.949049699983732], [35.00878950003545, 31.94364879985227], [35.00283499973551, 31.9391754002246], [35.003168900024775, 31.934839899941494], [35.013704800436244, 31.927151700090917], [35.02753000000956, 31.925436299945318], [35.031058699599384, 31.923471200335655], [35.03520529998468, 31.91788879992822], [35.03885880029344, 31.90684169968472], [35.03822589970554, 31.877265799876795], [35.03309340044012, 31.857986999900163], [35.03033339996648, 31.856272699625436], [35.015576300405996, 31.856640900057528], [34.99560730043663, 31.85289380010886], [34.992194199702624, 31.846806600344394], [34.978058000176645, 31.837329899855035], [34.97777499971653, 31.83260679986398], [34.98634939960516, 31.830649199700872], [35.01574439988423, 31.82849799978294], [35.022202999868625, 31.829816799805542], [35.03058460039904, 31.83387949973917], [35.046934599851966, 31.850229699740908], [35.05852910033775, 31.85614999972279], [35.06893729971665, 31.85654399990574], [35.0779173999681, 31.854499099853626], [35.08585830032035, 31.85042309984624], [35.096134900105596, 31.835072099697697], [35.099997599809456, 31.832721000273978], [35.10298889961808, 31.83295390040223], [35.10418370021762, 31.82683300034273], [35.10718089957891, 31.823854800059053], [35.12026190026654, 31.825324500025715], [35.136801099990805, 31.815087799562377], [35.15991200023865, 31.809133700360007], [35.17807549968461, 31.80787870004201], [35.18762829990618, 31.809370699598162], [35.18180780038972, 31.820811300001537], [35.18414209957831, 31.825939499608296], [35.194737000012594, 31.82658110023766], [35.20671369977748, 31.823375000056274], [35.20762990029971, 31.82058600004393], [35.21009999981521, 31.819763599710427], [35.2098308003512, 31.817135699752782], [35.21497940017923, 31.81887779987062], [35.2158684996316, 31.820701099775988], [35.21621389955186, 31.839020899594914], [35.21380709971794, 31.847115399656047], [35.21453190022709, 31.850756299563614], [35.211461399823804, 31.862990200037757], [35.2064768003641, 31.86535370021312], [35.20417220038678, 31.872577099853345], [35.206840800062935, 31.881534699966494], [35.2202110002375, 31.88266550031267], [35.223011599705615, 31.878827499589477], [35.22561029957569, 31.86745040031576], [35.22794210044765, 31.863696600417825], [35.22483400028892, 31.853483800337187], [35.2300734999921, 31.842647600106716], [35.23336950000248, 31.84195399977733], [35.24224140012058, 31.845294099842874], [35.25104050011902, 31.84390399976985], [35.25706269958397, 31.838294000068117], [35.25109630035405, 31.830388999752586], [35.25886519996908, 31.829011099882393], [35.26504579972391, 31.825546500370763], [35.261379799737995, 31.822995499642673], [35.26074210036768, 31.819492699628427], [35.255375700028594, 31.812845500119806], [35.25723890015519, 31.810775499989404], [35.256484500259546, 31.803772300251524], [35.259439700381904, 31.800921200253242], [35.259912800435416, 31.79229879994972], [35.26299579961653, 31.789965999930985], [35.25759159987251, 31.78536049978726], [35.253555699735784, 31.770678099714587], [35.25174540042991, 31.770183200094664], [35.25291929988583, 31.762928600274734], [35.2597816001408, 31.756871400095065], [35.259459700404875, 31.752472299756903], [35.26336500009472, 31.74857269997017], [35.25818999976872, 31.742442400196637], [35.25153949974816, 31.738837599975284], [35.24978849993937, 31.725502100141853], [35.243795800036196, 31.7199559999695], [35.24276959983723, 31.712235699717837], [35.239076100381794, 31.70962140020748], [35.231246699775454, 31.712946999604412], [35.22852849979046, 31.717560199743502], [35.22451959999961, 31.719003900309815], [35.219032700398884, 31.715577500401366], [35.205758199781144, 31.723609299729446], [35.1797630999871, 31.72054529962594], [35.16500799961955, 31.7323468995898], [35.15403299982313, 31.733605599718715], [35.15086810028265, 31.73666819957782], [35.13968430039023, 31.728843999750836], [35.13657370011623, 31.729582499632727], [35.135944799712775, 31.734198500260618], [35.13284209998295, 31.733746799575215], [35.12590830002807, 31.728119299965783], [35.121566400169286, 31.72118059960502], [35.12051840040391, 31.715567599764995], [35.11639180004158, 31.7137132004039], [35.10639829964185, 31.714782600436706], [35.093184600389066, 31.70083260014445], [35.08572450008569, 31.695955299697403], [35.08527910005046, 31.690610599999218], [35.06897920003013, 31.684007999669518], [35.029280999818354, 31.659871599794542], [35.00528159996594, 31.65193600004642], [34.99649789995817, 31.644879299640024], [34.97546300011743, 31.618000200448932], [34.95239369980948, 31.59466340039569], [34.94692049958144, 31.58068939989596], [34.94524809962013, 31.565314799738246], [34.943269199913686, 31.562009599663327], [34.94127450001821, 31.55023550006831], [34.94202570012601, 31.528541200216296], [34.94036749956052, 31.523280700444047], [34.94415089974427, 31.5098122996979], [34.942269400212695, 31.499577000378338], [34.93711969961447, 31.48614489986727], [34.92502640004835, 31.464386900135366], [34.899379300114674, 31.43640729965722], [34.88591119974211, 31.409640499709326], [34.8810790002957, 31.396041399590956], [34.88186859965623, 31.390009099840142], [34.886546399896474, 31.38268760035254], [34.890959499980966, 31.370494000297924], [34.91001969994926, 31.35554070014325], [34.910745499605184, 31.350253000375744], [34.920028499615626, 31.34356710034143], [34.92644389976624, 31.341690399592324], [34.933166500233824, 31.342779500173833], [34.935664100118174, 31.34645210028424], [34.94098560000549, 31.346232199856217], [34.947422900446554, 31.349604000124543], [34.95462789995764, 31.35022230021906], [34.95495589979498, 31.348516000313225], [34.97081039978019, 31.349916900344738], [35.0084723001566, 31.357748899991805], [35.06683350036582, 31.358053600193557], [35.13354340030776, 31.35485460015974], [35.159232899678614, 31.363282100288757], [35.17785970016507, 31.364739299679], [35.20640720003229, 31.371625199943082], [35.22439430015686, 31.372456199594012], [35.23074450035847, 31.374464199563192], [35.27627829970385, 31.409656100248867], [35.28713449995723, 31.414937100067164], [35.29362439994617, 31.421878099994387], [35.305493000301794, 31.429943499792728], [35.321389899724124, 31.439063799854523], [35.37978559972572, 31.477801700388227], [35.39510570006803, 31.49012000043774], [35.39463279966401, 31.491619899638692], [35.39911983121527, 31.493069417919344], [35.399951511653, 31.494837287211112], [35.3978871412786, 31.497915596427674], [35.40075999587714, 31.50618360538914], [35.39743798387593, 31.51480743111813], [35.40156847920201, 31.518830111220723], [35.399953266230284, 31.52091246533803], [35.402623341693925, 31.52311316214275], [35.400750959489244, 31.524327729840934], [35.40139631658678, 31.529180737800857], [35.40615515024007, 31.530438642029765], [35.40588039206648, 31.532683903839143], [35.40381080202695, 31.53367406820371], [35.40444207933854, 31.53550666619975], [35.40236248793855, 31.536369277020583], [35.402442538392506, 31.54100718063694], [35.40704820221282, 31.54230298229686], [35.404063190463944, 31.544746593180776], [35.40372619021156, 31.549119562817623], [35.40634007693308, 31.55099900739833], [35.40878548556174, 31.54975926228019], [35.40956348456723, 31.554683853577046], [35.41216859930148, 31.553348662510814], [35.41163136409625, 31.555628664231506], [35.413793637366496, 31.556980084463362], [35.41388136353413, 31.560097080715764], [35.41957965507709, 31.567039197600934], [35.411542585721804, 31.584758026361897], [35.412886417474226, 31.594659758141404], [35.414862710945386, 31.596427000605672], [35.41369634870756, 31.600776196664185], [35.414764282845454, 31.602853638684508], [35.41801997344305, 31.602615198732508], [35.421411639735425, 31.604430076486892], [35.422049232985785, 31.606208372518438], [35.41904978981597, 31.60753461533028], [35.41773732012126, 31.61100909479393], [35.423385695693355, 31.61574937453406], [35.42383603750318, 31.61866398645384], [35.42526018321092, 31.61953958078709], [35.42783371645288, 31.618561434062997], [35.42997032936728, 31.621952574251964], [35.43498497157924, 31.624944999112472], [35.432115889636634, 31.62759950281486], [35.43128766799151, 31.63732516892145], [35.43462564565709, 31.637855473051673], [35.4340256872357, 31.64005581912079], [35.43744884688681, 31.640399792716323], [35.43938632202122, 31.64405674282449], [35.438604769794324, 31.646576236703993], [35.44063957675513, 31.646641241500163], [35.43947996932519, 31.648186097810196], [35.442653767657305, 31.654212178749106], [35.446328745575215, 31.65407567695098], [35.44540542781829, 31.660506263053662], [35.446999060658186, 31.660785757956432], [35.44788978698415, 31.665190836088243], [35.450515166142054, 31.66619907232939], [35.449200985037464, 31.675835783794412], [35.45296768121358, 31.677678821120764], [35.449437406910874, 31.679107616323506], [35.44864278393737, 31.683782364264744], [35.45000008213816, 31.690666143028125], [35.45354676097429, 31.69340679458793], [35.45188255293755, 31.693982540561876], [35.45205050402757, 31.696081913449575], [35.45468084024861, 31.6993447986236], [35.46167243423548, 31.700383913986514], [35.464950451402274, 31.70423947577126], [35.473059325327654, 31.707541573185097], [35.48267006976795, 31.71739891622707], [35.48771690770917, 31.73147228731625], [35.49085693200186, 31.73695613281933], [35.49439014438968, 31.739711083599673], [35.50186624992756, 31.754513195127913], [35.50431815076212, 31.7563314057698], [35.5068550132483, 31.764365361672162], [35.52180542657925, 31.75977246192963], [35.528962428373404, 31.76138302540636], [35.54558542602666, 31.757628348669414], [35.55225041682331, 31.758012150540367], [35.55556804193162, 31.756311316713948], [35.5583275001141, 31.75791679992045], [35.558033500046065, 31.7655674998403], [35.552862800278035, 31.767341800184], [35.555603500401276, 31.769795700211432], [35.5557013996999, 31.77216500011474], [35.55194499986192, 31.773817300228302], [35.547348400308465, 31.783135200229367], [35.55133580000722, 31.790524799979607], [35.55034849998333, 31.79353850010176], [35.55152219978976, 31.79651549979053], [35.54288410002124, 31.80490819975364], [35.54258239995784, 31.810993099951645], [35.544408000328986, 31.81355710037991], [35.541143999995654, 31.813059199722318], [35.54224179971931, 31.815201499949296], [35.53894979989343, 31.816222500268225], [35.54026530030342, 31.817797300405118], [35.54319479960037, 31.817076799554684], [35.54004789999067, 31.818954699999438], [35.5422190001068, 31.819971299935617], [35.54312630003875, 31.822644499644014], [35.548696900441655, 31.823683400068887], [35.54764250020128, 31.82926009967389], [35.54469790038786, 31.830209200094544], [35.547146399986445, 31.830460799826085], [35.5467717001539, 31.834302299811327], [35.54936660038834, 31.836145200440683], [35.546501300094974, 31.836079600293374], [35.547519999948065, 31.840384500244568], [35.54466160015278, 31.842674599553163], [35.547879500338695, 31.842616399926953], [35.548965800431404, 31.844007599870906], [35.54337079962278, 31.84553870015094], [35.5431986999601, 31.846960500426803], [35.546325800095644, 31.84674799962056], [35.54641219976327, 31.84801310022442], [35.54354209978811, 31.849399499587264], [35.541066199645456, 31.848314300264803], [35.543197000241435, 31.850494700270247], [35.54074649965128, 31.85031400039088], [35.5389722002069, 31.852008799766338], [35.54213609970128, 31.85445439995067], [35.539269200413344, 31.85410130003504], [35.53645420010133, 31.85636849990641], [35.53994860044759, 31.857468600095842], [35.53829030005733, 31.858420699755527], [35.53995280028158, 31.858441099976858], [35.53987239999134, 31.86093829966285], [35.54286950042717, 31.85934060008867], [35.54261660027595, 31.861015799639517], [35.54450429973372, 31.862248100169722], [35.543786500446686, 31.864636999897698], [35.546844899572534, 31.863827299790103], [35.54471380040161, 31.86638410024608], [35.547020899594884, 31.86490360032093], [35.54867879978684, 31.865498400231047], [35.54520400016452, 31.871031399979188], [35.54969160008733, 31.872714400249436], [35.54340049973331, 31.875207699575753], [35.53902779989312, 31.87424220001759], [35.53891620032243, 31.879723999562998], [35.53244209962327, 31.882693599629988], [35.535483300114265, 31.885553399669732], [35.531334499987224, 31.88687419978453], [35.530064900075104, 31.890623799848527], [35.53331350041776, 31.89181789987623], [35.53409870029486, 31.8937723002515], [35.53038579976487, 31.892738999904964], [35.5324588998584, 31.896445199586367], [35.5279405997789, 31.899206100281333], [35.52428090044327, 31.90796980026613], [35.52793070004185, 31.916429300072195], [35.52724069969861, 31.92279619978484], [35.52982300043118, 31.92378499987791], [35.5320972995508, 31.921382300053153], [35.5327666001985, 31.92465699962088], [35.53529579956154, 31.925024200006874], [35.5338967997975, 31.923323699828927], [35.53526040044716, 31.922330600077203], [35.53911320041391, 31.923810400329785], [35.536796900256775, 31.92526780026884], [35.53606980018117, 31.930179899982477], [35.542425399912304, 31.929316600280913], [35.53907039987911, 31.93245899968315], [35.540274299819146, 31.933643199973744], [35.54427949979913, 31.93193940018324], [35.54268819980064, 31.93416450009164], [35.545351499771925, 31.9354622002204], [35.54525499981844, 31.93726559992757], [35.54100120024526, 31.938068500261124], [35.545026000049916, 31.94164199957868], [35.54105400034189, 31.94315929976193], [35.544099299942786, 31.944372999614302], [35.541214600373564, 31.945509900061893], [35.54351870032781, 31.946010899783232], [35.54198300001548, 31.94778289966115], [35.54386830008201, 31.949527300244768], [35.54178130006699, 31.94906080031575], [35.53905930044641, 31.95304560007446], [35.54131360044238, 31.95171600009337], [35.54138610018845, 31.953705900307114], [35.54413639967515, 31.95434649999106], [35.54280190018761, 31.954757300409142], [35.54316840000172, 31.957011300031525], [35.54113699967286, 31.956933399856553], [35.540219100331285, 31.95841680009528], [35.54087850034256, 31.960525499851997], [35.54523310042731, 31.96235279994181], [35.54168120012736, 31.96537050024841], [35.54418249982257, 31.96615989995945], [35.54391049986975, 31.9678244002759], [35.54735959956594, 31.969286900270276], [35.547419900008435, 31.970888000181105], [35.546442399896875, 31.972958600159302], [35.543722099994966, 31.971753299974864], [35.5413231998059, 31.975356100103966], [35.540718299609864, 31.982361100284606], [35.53966660003363, 31.982974800346824], [35.537323300430046, 31.980926099759756], [35.5345059996522, 31.985734200073352], [35.5371781003891, 31.98951439956994], [35.535773800020934, 31.992759800124702], [35.541044400079045, 31.995922999946515], [35.54167359995671, 31.998324500075682], [35.5389353999488, 31.99682190021059], [35.5390780000497, 31.999476299591606], [35.53576839959203, 31.997575100410586], [35.53724309978929, 32.00099349995014], [35.53489920033786, 31.998231600108284], [35.53288820023033, 32.00179750015457], [35.53216880015003, 31.998880399810673], [35.529425900285105, 32.00017080014237], [35.52727659973533, 31.999277900154993], [35.52887599992749, 32.00341829971484], [35.52794779975119, 32.0041252999427], [35.52650639965066, 32.00262720028513], [35.52375770005784, 32.004894800354805], [35.52662239960409, 32.00549480014496], [35.525371099996335, 32.00781260037127], [35.52865749974387, 32.00768929972145], [35.5276628000982, 32.00880899973561], [35.5293732000132, 32.01147140038489], [35.52723470032123, 32.01119509987399], [35.52629200037558, 32.01362780018286], [35.522966200429835, 32.01461190041891], [35.529040199945314, 32.01730569999813], [35.52897120036067, 32.019813400168346], [35.52248329956467, 32.01970610025637], [35.52222759982391, 32.0208114003259], [35.52508789808809, 32.02114598859657], [35.52341857021088, 32.02245345176544], [35.520566700392976, 32.02192019965753], [35.522346410158775, 32.02527263302562], [35.52120909962031, 32.02639239958961], [35.524053600393415, 32.02990179972835], [35.52202029979708, 32.02966750025496], [35.519842700280435, 32.03145879958396], [35.522481599846, 32.031765200403754], [35.52270959956843, 32.03506059966702], [35.52058430012539, 32.03424020032503], [35.51885659995219, 32.03574630035155], [35.52246490033491, 32.041692499909004], [35.51928249998741, 32.04627440004356], [35.5218556995809, 32.048385400266056], [35.520485100407086, 32.051051200352674], [35.52322419973706, 32.05022860036968], [35.52399010016302, 32.047678400038194], [35.52552669979741, 32.05076979978651], [35.529808800136095, 32.05031960006954], [35.52878219973877, 32.05850929966448], [35.53212279982739, 32.06027459959313], [35.530647200308124, 32.05974620022698], [35.52934480032235, 32.06186550029264], [35.534578000274564, 32.063798100202234], [35.5301119004439, 32.06370830019796], [35.52972870021938, 32.064798899949324], [35.53281189994925, 32.065285100427104], [35.52982399957796, 32.066509200039604], [35.53253999982121, 32.067634400307384], [35.53008780041171, 32.06880640039509], [35.52987330041253, 32.07129039983215], [35.53296780012391, 32.07072489983432], [35.533972600055506, 32.06861899966714], [35.53516550038756, 32.06914809960517], [35.53506159991298, 32.07680620004612], [35.538702700369356, 32.07501010013607], [35.53680029969411, 32.07850660039935], [35.541181499926324, 32.0796100002014], [35.539028399740914, 32.08117420002935], [35.53934630019165, 32.08261779987163], [35.54363959978775, 32.079996300388984], [35.54630870038625, 32.08109140034787], [35.54282729974017, 32.081797700003904], [35.54588149993134, 32.0840159003136], [35.5429517002608, 32.084936100120956], [35.54556870043524, 32.08799529964341], [35.543766799897924, 32.087936799643614], [35.542970700237674, 32.09009289996743], [35.53754860038765, 32.08954980028312], [35.54065599997449, 32.091666799882944], [35.53901380014679, 32.09459809962266], [35.53987010042482, 32.096661100329584], [35.537250699959884, 32.09977820000398], [35.53181809962564, 32.10061589960412], [35.53510469992199, 32.10246419976306], [35.53200210001694, 32.10795199958517], [35.53848990008885, 32.11048179969538], [35.54301700003458, 32.11031780022637], [35.544102300081136, 32.11303429959332], [35.542678800086605, 32.11476130009396], [35.54766379974461, 32.122117200448486], [35.54585560035571, 32.12512869992963], [35.54881670003073, 32.12416130010399], [35.550571000351454, 32.126494899619956], [35.54708150041097, 32.12838200012925], [35.550162100200794, 32.12915489997869], [35.55075980042449, 32.13214249997645], [35.54905899987301, 32.12978979975952], [35.54697020031455, 32.13141270013608], [35.54536439964738, 32.128566299994816], [35.54407689962926, 32.128994600320596], [35.545482799891374, 32.13008729998893], [35.54269670019261, 32.13051970032399], [35.54348530040636, 32.134690499666874], [35.54679799992783, 32.13283140044882], [35.549805799598005, 32.13561910004148], [35.549167500379895, 32.13730670034397], [35.54737239961662, 32.135612099718685], [35.54389590027563, 32.1367589997281], [35.54307619970689, 32.14059410013766], [35.546704099914336, 32.141077699776076], [35.54422740027434, 32.14246870007048], [35.54719579974642, 32.14329669958306], [35.54915060031999, 32.14185340011437], [35.551370500348355, 32.145040699968376], [35.55539060029599, 32.142672300286506], [35.55503140027895, 32.14568849962461], [35.5572321996064, 32.143818499724034], [35.55884670031503, 32.14454039991955], [35.55790639976061, 32.14736069993643], [35.56071425226099, 32.15136472000586], [35.556850422109335, 32.15210970040238], [35.555561899562065, 32.15483100035044], [35.553570299629655, 32.15246540025805], [35.552100099639915, 32.15578619997319], [35.55360369955116, 32.157001899917816], [35.55622619997922, 32.155733700250096], [35.55636629996485, 32.158837599675564], [35.55363040042272, 32.15996899986948], [35.550773399972456, 32.158948899771985], [35.54867219966235, 32.16170950009342], [35.5490004000485, 32.16325729988455], [35.55217770034068, 32.163700900376284], [35.553265299953694, 32.16145020036652], [35.557969099594345, 32.16483610020589], [35.556253300149706, 32.16719820013685], [35.55306870006052, 32.16486340002592], [35.55228650032177, 32.1671344004323], [35.55465439998062, 32.16995850008476], [35.5512608999706, 32.172064799550924], [35.55371649971676, 32.17342859985007], [35.5564290996233, 32.1703237003785], [35.558944099590576, 32.17035779997252], [35.55800739992162, 32.17408830023493], [35.553222699967705, 32.174978700106976], [35.55777470034218, 32.17644630015667], [35.55989739984517, 32.175069799631615], [35.56168329964464, 32.17780009999467], [35.55954389973124, 32.17903970032194], [35.55820969971791, 32.184265200278844], [35.561330400277825, 32.18424830021894], [35.56143799966401, 32.18701649981165], [35.56391299958534, 32.189078999596234], [35.56936400004861, 32.188645899588664], [35.568923600244034, 32.19142930042193], [35.57257270017004, 32.19266600043562], [35.569706300005805, 32.195642900299674], [35.56919479980024, 32.19969299983211], [35.56453699958291, 32.19741199986396], [35.56245959983073, 32.198130600446916], [35.56600060034748, 32.20407599960777], [35.563330100403846, 32.2057557002654], [35.56417190001321, 32.209009499588774], [35.566856600251924, 32.20683640027971], [35.569915399576075, 32.20951389964682], [35.57349420039708, 32.2091197996391], [35.57097790001012, 32.21530579982283], [35.56786069961163, 32.21425670018664], [35.56479949999698, 32.21746569978228], [35.567622923359295, 32.22010996830045], [35.57027207609548, 32.22002627739084], [35.56935209122611, 32.219023951494194], [35.57140000040977, 32.21823010013907], [35.57299669993779, 32.219283600158064], [35.57197390007548, 32.22101610001306], [35.56827419979453, 32.22130719976752], [35.5697008995769, 32.2304352996494], [35.567299799646094, 32.231134199683595], [35.566799499597266, 32.22877530043979], [35.56400800036897, 32.228437300141366], [35.561993500100016, 32.23391260028632], [35.5588721996923, 32.23504050031886], [35.55799609994011, 32.237637399746234], [35.563587499863274, 32.23727569961392], [35.563360000163925, 32.24179189977639], [35.567848500308116, 32.23809609985517], [35.569122800077196, 32.23931329986897], [35.566564700100855, 32.24053140010409], [35.568631500443416, 32.242234699871574], [35.57043809993843, 32.24177160027921], [35.571475699943676, 32.243738699981066], [35.569086900040475, 32.24537340036221], [35.567387100434416, 32.250036000261275], [35.562505100130295, 32.25130129961536], [35.56481139982628, 32.2618567998515], [35.56007520031028, 32.264439700431865], [35.55795199988495, 32.27246949966775], [35.56597090023689, 32.27589319981138], [35.566874899656966, 32.28601440034436], [35.56213650039922, 32.295247999695505], [35.55455229994874, 32.298748699792725], [35.560189600369824, 32.30299609979022], [35.5590089002406, 32.303262300015206], [35.56002049994618, 32.305357900246975], [35.56369059994131, 32.30971970030396], [35.5601557004253, 32.317969399967865], [35.552991999581195, 32.32180550042358], [35.555084800223426, 32.32569530029792], [35.554635200354255, 32.32920189994775], [35.557262999587806, 32.33156139993872], [35.55375070003481, 32.343572700219966], [35.55949519964378, 32.348303199832856], [35.55487269961543, 32.354528299841206], [35.55676009959899, 32.356955599721175], [35.55356690019232, 32.35944770025122], [35.55423350017594, 32.363503600410866], [35.55281839984934, 32.366715399596046], [35.558034699741654, 32.36538369969804], [35.557629600126006, 32.36102970036046], [35.55952999980968, 32.3603126996714], [35.563828500185195, 32.36944629980695], [35.56403380011983, 32.37385400036186], [35.56026010002364, 32.37957749990176], [35.56256460017619, 32.38469550029714], [35.554301700263295, 32.389076099782244], [35.54116269959894, 32.387157100319996], [35.527619399715604, 32.39367520035029], [35.49635629980344, 32.401049300285024], [35.49081009980631, 32.403046399571735], [35.47955299977116, 32.410487099699935], [35.453000500173005, 32.41299200028067], [35.448228100246695, 32.410502700239476], [35.44483110007525, 32.41086309995217], [35.443842399806954, 32.40759510033365], [35.44072609962984, 32.40594249984656], [35.4321464000364, 32.40847239978149], [35.419408399877796, 32.41679140030294], [35.41099510004386, 32.43676899958973], [35.41607740005202, 32.456079499769146], [35.42030110021568, 32.45889249998896], [35.40511709967444, 32.48365280003674], [35.4065748998118, 32.48731529986128], [35.40286929997825, 32.50122720037507], [35.390618600168295, 32.50516449974191], [35.38450399985976, 32.504995500042355], [35.38149119995899, 32.508804600152246], [35.371249599989085, 32.514804099829405], [35.356304999875874, 32.51875599968969], [35.34250369978599, 32.51909929969298], [35.33271889965755, 32.51534220018243], [35.306331899597524, 32.509914199880484], [35.28903019978395, 32.51061140019601], [35.25250629972601, 32.52305929974693], [35.23675970039989, 32.53600469975714], [35.231647100433406, 32.542661700077474]], [[35.51017312129255, 32.069774373988196], [35.510916293152434, 32.07169412798169], [35.51345451631295, 32.06577941548767], [35.510987044616456, 32.06600588006734], [35.51017312129255, 32.069774373988196]], [[35.5227722112686, 32.06898488254632], [35.52126985871706, 32.06497093126353], [35.51989374310182, 32.06486509005191], [35.51965911987253, 32.06724917840688], [35.5227722112686, 32.06898488254632]], [[35.50471554948308, 32.061037775972636], [35.50648761681015, 32.058901996729844], [35.505190016506106, 32.057964073083554], [35.503773941314364, 32.05954612535345], [35.50471554948308, 32.061037775972636]], [[35.51973193258266, 32.058093030469024], [35.51876900688421, 32.05535895924862], [35.51656879211612, 32.05505704964315], [35.516941715787596, 32.05744951518301], [35.51973193258266, 32.058093030469024]], [[35.49064397703796, 32.057148922185036], [35.48900428811743, 32.05558687173681], [35.48722371230451, 32.05661659997617], [35.4891139901186, 32.06079043273235], [35.490908295881184, 32.05941251847298], [35.49064397703796, 32.057148922185036]], [[35.4566418686274, 31.909702937740462], [35.456501331571246, 31.911448862674945], [35.45869724757995, 31.91229730557626], [35.45979939462643, 31.911049226440696], [35.4566418686274, 31.909702937740462]], [[35.02503064554793, 31.84585952609632], [35.02474934030988, 31.8493254089405], [35.02771671995072, 31.847278583439902], [35.02503064554793, 31.84585952609632]], [[35.50012778217149, 31.796407230409386], [35.50226632503092, 31.79627151821603], [35.50051877682017, 31.795117042317713], [35.50012778217149, 31.796407230409386]], [[35.49098264373407, 31.790190783677758], [35.492863929226985, 31.792434554411216], [35.49540719668482, 31.788966390886287], [35.49238569044729, 31.788511092013323], [35.49098264373407, 31.790190783677758]], [[35.47729903971896, 31.771178696539664], [35.47604139809209, 31.773394745671055], [35.47816393122048, 31.774342889213017], [35.481075516022315, 31.770370037847044], [35.47852045035853, 31.76929565646941], [35.47729903971896, 31.771178696539664]], [[35.362949215434014, 31.69545633873912], [35.362410226550764, 31.696637658501174], [35.364154528208985, 31.695763380775475], [35.362949215434014, 31.69545633873912]]]]}}]}